NORAD_CAT_ID,OBJECT_NAME,OBJECT_TYPE,EPOCH,MEAN_MOTION,ECCENTRICITY,INCLINATION,RA_OF_ASC_NODE,ARG_OF_PERICENTER,MEAN_ANOMALY,BSTAR,MEAN_MOTION_DOT,MEAN_MOTION_DDOT,TLE_LINE0,TLE_LINE1,TLE_LINE2,SEMIMAJOR_AXIS,PERIOD,APOGEE,PERIGEE,DECAYED
55745.0,STARLINK-5565,PAYLOAD,2023-05-11 20:04:56,14.99302048,0.0002993,69.9988,328.8546,267.3181,92.7636,2.6883e-05,2.35e-06,0.0,0 STARLINK-5565,1 55745U 23028E   23131.83675988  .00000235  00000-0  26883-4 0  9996,2 55745  69.9988 328.8546 0002993 267.3181  92.7636 14.99302048 11324,6947.189,96.045,571.133,566.974,0.0
55745.0,STARLINK-5565,PAYLOAD,2023-05-11 23:17:04,14.99302404,0.0002994,69.9989,328.5177,267.4218,92.6598,2.9693e-05,2.69e-06,0.0,0 STARLINK-5565,1 55745U 23028E   23131.97019312  .00000269  00000-0  29693-4 0  9993,2 55745  69.9989 328.5177 0002994 267.4218  92.6598 14.99302404 11349,6947.187,96.045,571.132,566.972,0.0
55745.0,STARLINK-5565,PAYLOAD,2023-05-12 18:29:56,14.9930078,0.0002907,69.9991,326.4973,260.2694,99.8138,9.5807e-06,2.3e-07,0.0,0 STARLINK-5565,1 55745U 23028E   23132.77079556  .00000023  00000-0  95807-5 0  9997,2 55745  69.9991 326.4973 0002907 260.2694  99.8138 14.99300780 11463,6947.192,96.045,571.077,567.038,0.0
55745.0,STARLINK-5565,PAYLOAD,2023-05-13 13:42:48,14.9929848,0.0002845,69.9993,324.4753,262.1838,97.8999,-2.256e-05,-3.7e-06,0.0,0 STARLINK-5565,1 55745U 23028E   23133.57139963 -.00000370  00000-0 -22560-4 0  9997,2 55745  69.9993 324.4753 0002845 262.1838  97.8999 14.99298480 11580,6947.2,96.045,571.041,567.088,0.0
55745.0,STARLINK-5565,PAYLOAD,2023-05-13 20:07:06,14.99296702,0.0002862,69.9992,323.8001,268.8867,91.1965,-3.9535e-05,-5.77e-06,0.0,0 STARLINK-5565,1 55745U 23028E   23133.83826918 -.00000577  00000-0 -39535-4 0  9998,2 55745  69.9992 323.8001 0002862 268.8867  91.1965 14.99296702 11622,6947.205,96.045,571.058,567.082,0.0
55745.0,STARLINK-5565,PAYLOAD,2023-05-14 13:43:53,14.99304564,0.0002934,69.999,321.9466,269.8069,90.2754,3.0965e-05,2.85e-06,0.0,0 STARLINK-5565,1 55745U 23028E   23134.57214718  .00000285  00000-0  30965-4 0  9991,2 55745  69.9990 321.9466 0002934 269.8069  90.2754 14.99304564 11733,6947.181,96.045,571.084,567.007,0.0
55745.0,STARLINK-5565,PAYLOAD,2023-05-14 20:08:10,14.99305367,0.0002936,69.9989,321.2726,269.6579,90.4244,4.503e-05,4.57e-06,0.0,0 STARLINK-5565,1 55745U 23028E   23134.83901267  .00000457  00000-0  45030-4 0  9992,2 55745  69.9989 321.2726 0002936 269.6579  90.4244 14.99305367 11771,6947.178,96.044,571.083,567.004,0.0
55745.0,STARLINK-5565,PAYLOAD,2023-05-15 05:44:39,14.99281958,0.0001434,69.9992,320.2619,290.6834,69.4171,-0.00017352,-2.215e-05,0.0,0 STARLINK-5565,1 55745U 23028E   23135.23934106 -.00002215  00000-0 -17352-3 0  9996,2 55745  69.9992 320.2619 0001434 290.6834  69.4171 14.99281958 11836,6947.251,96.046,570.112,568.119,0.0
55745.0,STARLINK-5565,PAYLOAD,2023-05-15 18:33:56,14.98791878,0.0003438,69.9986,318.915,268.7175,91.3591,-0.0051472,-0.00061707,0.0,0 STARLINK-5565,1 55745U 23028E   23135.77357552 -.00061707  00000-0 -51472-2 0  9990,2 55745  69.9986 318.9150 0003438 268.7175  91.3591 14.98791878 11918,6948.765,96.077,573.019,568.241,0.0
55745.0,STARLINK-5565,PAYLOAD,2023-05-15 21:46:11,14.98761857,0.0003317,69.9985,318.5782,267.7071,92.3708,-0.0053111,-0.00063602,0.0,0 STARLINK-5565,1 55745U 23028E   23135.90707283 -.00063602  00000-0 -53111-2 0  9993,2 55745  69.9985 318.5782 0003317 267.7071  92.3708 14.98761857 11931,6948.858,96.079,573.028,568.418,0.0
55745.0,STARLINK-5565,PAYLOAD,2023-05-16 12:11:11,14.98700796,0.0003386,69.998,317.0629,267.6066,92.4706,-0.0051725,-0.00061862,0.0,0 STARLINK-5565,1 55745U 23028E   23136.50776748 -.00061862  00000-0 -51725-2 0  9997,2 55745  69.9980 317.0629 0003386 267.6066  92.4706 14.98700796 12024,6949.046,96.083,573.264,568.559,0.0
55745.0,STARLINK-5565,PAYLOAD,2023-05-16 21:47:52,14.98667481,0.0003523,69.998,316.0525,269.6615,90.4141,-0.0049474,-0.00059146,0.0,0 STARLINK-5565,1 55745U 23028E   23136.90824523 -.00059146  00000-0 -49474-2 0  9996,2 55745  69.9980 316.0525 0003523 269.6615  90.4141 14.98667481 12083,6949.149,96.085,573.463,568.566,0.0
55745.0,STARLINK-5565,PAYLOAD,2023-05-17 05:48:28,14.9862663,0.0003356,69.9978,315.2106,273.4585,86.619,-0.0046175,-0.00055181,0.0,0 STARLINK-5565,1 55745U 23028E   23137.24199599 -.00055181  00000-0 -46175-2 0  9992,2 55745  69.9978 315.2106 0003356 273.4585  86.6190 14.98626630 12137,6949.276,96.088,573.473,568.809,0.0
55745.0,STARLINK-5565,PAYLOAD,2023-05-17 22:00:00,14.98320481,0.0003546,69.9995,313.5087,271.9034,126.4319,0.0018705,0.00022292,0.0,0 STARLINK-5565,1 55745U 23028E   23137.91667824  .00022292  00000-0  18705-2 0  9990,2 55745  69.9995 313.5087 0003546 271.9034 126.4319 14.98320481 12230,6950.222,96.108,574.552,569.623,0.0
55745.0,STARLINK-5565,PAYLOAD,2023-05-18 14:00:01,14.98358693,0.0003558,69.9998,311.8277,267.6104,125.6756,-0.0032406,-0.00038578,0.0,0 STARLINK-5565,1 55745U 23028E   23138.58334491 -.00038578  00000-0 -32406-2 0  9995,2 55745  69.9998 311.8277 0003558 267.6104 125.6756 14.98358693 12331,6950.104,96.105,574.442,569.496,0.0
55745.0,STARLINK-5565,PAYLOAD,2023-05-18 22:00:00,14.98317657,0.0003477,69.9995,310.987,272.696,118.0954,0.0018459,0.00021995,0.0,0 STARLINK-5565,1 55745U 23028E   23138.91667824  .00021995  00000-0  18459-2 0  9996,2 55745  69.9995 310.9870 0003477 272.6960 118.0954 14.98317657  1309,6950.231,96.108,574.513,569.679,0.0
55745.0,STARLINK-5565,PAYLOAD,2023-05-19 00:00:00,14.98332893,0.0003462,69.9993,310.7769,272.8519,207.3048,-0.00074945,-9.025e-05,0.0,0 STARLINK-5565,1 55745U 23028E   23139.00001157 -.00009025  00000-0 -74945-3 0  9993,2 55745  69.9993 310.7769 0003462 272.8519 207.3048 14.98332893 12394,6950.184,96.107,574.455,569.643,0.0
55745.0,STARLINK-5565,PAYLOAD,2023-05-19 20:17:41,14.98331445,0.0003394,69.9982,308.6452,267.4514,92.6257,9.3431e-06,1.8e-07,0.0,0 STARLINK-5565,1 55745U 23028E   23139.84562282  .00000018  00000-0  93431-5 0  9990,2 55745  69.9982 308.6452 0003394 267.4514  92.6257 14.98331445 12520,6950.188,96.107,574.412,569.695,0.0
55745.0,STARLINK-5565,PAYLOAD,2023-05-20 20:19:42,14.98336221,0.0003288,69.9984,306.1201,269.4798,90.5984,6.1477e-05,6.41e-06,0.0,0 STARLINK-5565,1 55745U 23028E   23140.84701712  .00000641  00000-0  61477-4 0  9991,2 55745  69.9984 306.1201 0003288 269.4798  90.5984 14.98336221 12672,6950.174,96.107,574.324,569.753,0.0
55745.0,STARLINK-5565,PAYLOAD,2023-05-21 04:20:23,14.98329452,0.0003206,69.9986,305.2785,268.8907,91.1885,2.3895e-05,1.92e-06,0.0,0 STARLINK-5565,1 55745U 23028E   23141.18082185  .00000192  00000-0  23895-4 0  9998,2 55745  69.9986 305.2785 0003206 268.8907  91.1885 14.98329452 12727,6950.195,96.107,574.288,569.831,0.0
55745.0,STARLINK-5565,PAYLOAD,2023-05-21 17:09:28,14.98321746,0.0003358,69.9984,303.9319,267.7784,92.299,-8.5442e-05,-1.112e-05,0.0,0 STARLINK-5565,1 55745U 23028E   23141.71491078 -.00001112  00000-0 -85442-4 0  9993,2 55745  69.9984 303.9319 0003358 267.7784  92.2990 14.98321746 12808,6950.218,96.108,574.417,569.75,0.0
55745.0,STARLINK-5565,PAYLOAD,2023-05-21 20:21:44,14.98322123,0.0003358,69.9984,303.5952,267.7891,92.2883,-7.8577e-05,-1.03e-05,0.0,0 STARLINK-5565,1 55745U 23028E   23141.84843097 -.00001030  00000-0 -78577-4 0  9999,2 55745  69.9984 303.5952 0003358 267.7891  92.2883 14.98322123 12829,6950.217,96.108,574.416,569.748,0.0
55745.0,STARLINK-5565,PAYLOAD,2023-05-22 04:22:24,14.98326979,0.000338,69.9983,302.7533,267.6492,92.428,-1.8906e-05,-3.19e-06,0.0,0 STARLINK-5565,1 55745U 23028E   23142.18222730 -.00000319  00000-0 -18906-4 0  9991,2 55745  69.9983 302.7533 0003380 267.6492  92.4280 14.98326979 12876,6950.202,96.107,574.416,569.718,0.0
55745.0,STARLINK-5565,PAYLOAD,2023-05-22 10:46:56,14.98331286,0.000339,69.9982,302.08,267.7166,92.3605,-2.1908e-06,-1.19e-06,0.0,0 STARLINK-5565,1 55745U 23028E   23142.44926422 -.00000119  00000-0 -21908-5 0  9994,2 55745  69.9982 302.0800 0003390 267.7166  92.3605 14.98331286 12917,6950.189,96.107,574.41,569.698,0.0
55745.0,STARLINK-5565,PAYLOAD,2023-05-22 17:11:28,14.98337561,0.0003485,69.9982,301.4064,268.0436,92.0324,-3.1031e-06,-1.3e-06,0.0,0 STARLINK-5565,1 55745U 23028E   23142.71629986 -.00000130  00000-0 -31031-5 0  9990,2 55745  69.9982 301.4064 0003485 268.0436  92.0324 14.98337561 12952,6950.17,96.107,574.457,569.612,0.0
55745.0,STARLINK-5565,PAYLOAD,2023-05-22 20:23:44,14.98338124,0.0003501,69.9982,301.0698,268.1859,91.8899,5.0436e-06,-3.3e-07,0.0,0 STARLINK-5565,1 55745U 23028E   23142.84981897 -.00000033  00000-0  50436-5 0  9997,2 55745  69.9982 301.0698 0003501 268.1859  91.8899 14.98338124 12972,6950.168,96.106,574.466,569.6,0.0
55745.0,STARLINK-5565,PAYLOAD,2023-05-23 04:24:25,14.98330231,0.0003504,69.9982,300.2278,266.0398,94.0361,8.8662e-07,-8.3e-07,0.0,0 STARLINK-5565,1 55745U 23028E   23143.18362291 -.00000083  00000-0  88662-6 0  9994,2 55745  69.9982 300.2278 0003504 266.0398  94.0361 14.98330231 13022,6950.192,96.107,574.493,569.622,0.0
55745.0,STARLINK-5565,PAYLOAD,2023-05-23 20:25:45,14.98326145,0.0003481,69.9983,298.5448,266.7064,93.3696,7.7454e-05,8.31e-06,0.0,0 STARLINK-5565,1 55745U 23028E   23143.85122528  .00000831  00000-0  77454-4 0  9990,2 55745  69.9983 298.5448 0003481 266.7064  93.3696 14.98326145 13125,6950.205,96.107,574.489,569.65,0.0
55745.0,STARLINK-5565,PAYLOAD,2023-05-24 15:39:22,14.98332191,0.0003434,69.9986,296.5247,266.7719,93.3047,-6.4608e-07,-1.01e-06,0.0,0 STARLINK-5565,1 55745U 23028E   23144.65234384 -.00000101  00000-0 -64608-6 0  9994,2 55745  69.9986 296.5247 0003434 266.7719  93.3047 14.98332191 13249,6950.186,96.107,574.438,569.664,0.0
55745.0,STARLINK-5565,PAYLOAD,2023-05-25 14:05:15,14.98330611,0.0003382,69.9988,294.168,268.34,91.7372,3.2387e-05,2.93e-06,0.0,0 STARLINK-5565,1 55745U 23028E   23145.58698258  .00000293  00000-0  32387-4 0  9998,2 55745  69.9988 294.1680 0003382 268.3400  91.7372 14.98330611 13386,6950.191,96.107,574.407,569.705,0.0
